{
  "norad_id": 59039,
  "name": "STARLINK-31220",
  "history": [
    {
      "epoch": "2026-03-28T13:17:59.776512Z",
      "apogee_km": 483.8865881575648,
      "perigee_km": 482.2335885550374,
      "latitude_deg": 2.334247156305626e-05,
      "longitude_deg": -105.03018873820609,
      "height_km": 482.87132392901515,
      "semi_major_axis_km": 6861.197088356301,
      "eccentricity": 0.00012046,
      "inclination_deg": 42.9983,
      "raan_deg": 280.4418,
      "arg_perigee_deg": 267.5802,
      "mean_anomaly_deg": 92.4912,
      "mean_motion_rev_day": 15.27576329
    },
    {
      "epoch": "2026-03-29T04:59:33.219168Z",
      "apogee_km": 483.92655600845137,
      "perigee_km": 482.14127933567215,
      "latitude_deg": 4.741655116016674e-05,
      "longitude_deg": 15.245419341470912,
      "height_km": 482.9016258351039,
      "semi_major_axis_km": 6861.1709176720615,
      "eccentricity": 0.0001301,
      "inclination_deg": 42.9999,
      "raan_deg": 276.7512,
      "arg_perigee_deg": 264.1408,
      "mean_anomaly_deg": 95.9296,
      "mean_motion_rev_day": 15.27585069
    },
    {
      "epoch": "2026-03-30T04:31:54.835968Z",
      "apogee_km": 483.84271123992403,
      "perigee_km": 482.3123859470061,
      "latitude_deg": 4.028353473514863e-05,
      "longitude_deg": 15.650516095623273,
      "height_km": 482.7313330191429,
      "semi_major_axis_km": 6861.214548593465,
      "eccentricity": 0.00011152,
      "inclination_deg": 42.9992,
      "raan_deg": 271.2131,
      "arg_perigee_deg": 279.2192,
      "mean_anomaly_deg": 80.8534,
      "mean_motion_rev_day": 15.27570498
    },
    {
      "epoch": "2026-03-30T13:56:50.531424Z",
      "apogee_km": 483.8554011707274,
      "perigee_km": 482.2286156278351,
      "latitude_deg": 7.368661685584443e-06,
      "longitude_deg": -128.1830626063064,
      "height_km": 482.71228817041,
      "semi_major_axis_km": 6861.179008399281,
      "eccentricity": 0.00011855,
      "inclination_deg": 43.0001,
      "raan_deg": 268.9983,
      "arg_perigee_deg": 277.5063,
      "mean_anomaly_deg": 82.5654,
      "mean_motion_rev_day": 15.27582367
    },
    {
      "epoch": "2026-03-30T20:13:27.770592Z",
      "apogee_km": 483.8944964973207,
      "perigee_km": 482.1564268225329,
      "latitude_deg": 3.9445825992296715e-05,
      "longitude_deg": 135.9265210282872,
      "height_km": 482.7004315240899,
      "semi_major_axis_km": 6861.1624616599265,
      "eccentricity": 0.00012666,
      "inclination_deg": 42.9996,
      "raan_deg": 267.5208,
      "arg_perigee_deg": 276.7124,
      "mean_anomaly_deg": 83.3584,
      "mean_motion_rev_day": 15.27587893
    },
    {
      "epoch": "2026-03-31T13:29:13.774272Z",
      "apogee_km": 483.93474944077025,
      "perigee_km": 482.3352497122296,
      "latitude_deg": 3.422490043400875e-05,
      "longitude_deg": -127.78622270515591,
      "height_km": 482.84462093270264,
      "semi_major_axis_km": 6861.2719995765,
      "eccentricity": 0.00011656,
      "inclination_deg": 43.0017,
      "raan_deg": 263.4587,
      "arg_perigee_deg": 274.8112,
      "mean_anomaly_deg": 85.2607,
      "mean_motion_rev_day": 15.27551312
    },
    {
      "epoch": "2026-04-01T17:44:01.359168Z",
      "apogee_km": 483.9397940446361,
      "perigee_km": 482.149025696659,
      "latitude_deg": -2.6849557307972747e-05,
      "longitude_deg": 160.70779864865284,
      "height_km": 482.93825038101687,
      "semi_major_axis_km": 6861.181409870647,
      "eccentricity": 0.0001305,
      "inclination_deg": 43.002,
      "raan_deg": 256.8111,
      "arg_perigee_deg": 262.4905,
      "mean_anomaly_deg": 97.5798,
      "mean_motion_rev_day": 15.27581565
    },
    {
      "epoch": "2026-04-02T17:16:21.903744Z",
      "apogee_km": 484.0355227395521,
      "perigee_km": 481.9538553850907,
      "latitude_deg": 6.98799342466642e-06,
      "longitude_deg": 161.11581912814555,
      "height_km": 482.73056530700563,
      "semi_major_axis_km": 6861.131689062321,
      "eccentricity": 0.0001517,
      "inclination_deg": 43.0003,
      "raan_deg": 251.2714,
      "arg_perigee_deg": 272.2552,
      "mean_anomaly_deg": 87.8126,
      "mean_motion_rev_day": 15.2759817
    },
    {
      "epoch": "2026-04-02T17:16:21.904608Z",
      "apogee_km": 484.03572857350264,
      "perigee_km": 481.9536495511402,
      "latitude_deg": 9.344895770282222e-06,
      "longitude_deg": 161.11581803176287,
      "height_km": 482.7305572086698,
      "semi_major_axis_km": 6861.131689062321,
      "eccentricity": 0.00015173,
      "inclination_deg": 43.0003,
      "raan_deg": 251.2714,
      "arg_perigee_deg": 272.2552,
      "mean_anomaly_deg": 87.8126,
      "mean_motion_rev_day": 15.2759817
    },
    {
      "epoch": "2026-04-03T18:22:50.715264Z",
      "apogee_km": 483.8928451280435,
      "perigee_km": 482.0924847039687,
      "latitude_deg": 6.144773705302795e-06,
      "longitude_deg": 137.55582131591217,
      "height_km": 482.90115850234037,
      "semi_major_axis_km": 6861.129664916006,
      "eccentricity": 0.0001312,
      "inclination_deg": 43.0003,
      "raan_deg": 245.3626,
      "arg_perigee_deg": 261.5766,
      "mean_anomaly_deg": 98.4937,
      "mean_motion_rev_day": 15.27598846
    },
    {
      "epoch": "2026-04-04T10:04:24.792960Z",
      "apogee_km": 483.9665913564777,
      "perigee_km": 482.1452190878563,
      "latitude_deg": 3.875269833610802e-05,
      "longitude_deg": -102.17281509484268,
      "height_km": 482.932603587657,
      "semi_major_axis_km": 6861.192905222167,
      "eccentricity": 0.00013273,
      "inclination_deg": 42.9998,
      "raan_deg": 241.6704,
      "arg_perigee_deg": 263.6892,
      "mean_anomaly_deg": 96.3809,
      "mean_motion_rev_day": 15.27577726
    },
    {
      "epoch": "2026-04-05T09:36:45.332352Z",
      "apogee_km": 483.706108430114,
      "perigee_km": 482.3425212304037,
      "latitude_deg": 5.1605462300266114e-05,
      "longitude_deg": -101.76629742278021,
      "height_km": 482.9904391290961,
      "semi_major_axis_km": 6861.161314830259,
      "eccentricity": 9.937e-05,
      "inclination_deg": 42.9979,
      "raan_deg": 236.1292,
      "arg_perigee_deg": 253.8124,
      "mean_anomaly_deg": 106.2619,
      "mean_motion_rev_day": 15.27588276
    },
    {
      "epoch": "2026-04-05T19:01:42.028320Z",
      "apogee_km": 484.21853196450866,
      "perigee_km": 481.94527291775194,
      "latitude_deg": -5.3395911782629005e-05,
      "longitude_deg": 114.39666562883885,
      "height_km": 482.8602893715469,
      "semi_major_axis_km": 6861.21890244113,
      "eccentricity": 0.00016566,
      "inclination_deg": 43.0012,
      "raan_deg": 233.9152,
      "arg_perigee_deg": 269.9326,
      "mean_anomaly_deg": 90.1335,
      "mean_motion_rev_day": 15.27569044
    },
    {
      "epoch": "2026-04-07T10:15:37.571616Z",
      "apogee_km": 483.9416692397672,
      "perigee_km": 482.18341824468826,
      "latitude_deg": -1.6118253910338776e-05,
      "longitude_deg": -124.9283340302063,
      "height_km": 483.0283058119849,
      "semi_major_axis_km": 6861.199543742227,
      "eccentricity": 0.00012813,
      "inclination_deg": 42.9991,
      "raan_deg": 224.6828,
      "arg_perigee_deg": 257.5646,
      "mean_anomaly_deg": 102.5062,
      "mean_motion_rev_day": 15.27575509
    },
    {
      "epoch": "2026-04-08T14:30:26.500896Z",
      "apogee_km": 484.0374160737065,
      "perigee_km": 482.0725079196309,
      "latitude_deg": -1.537135717909277e-05,
      "longitude_deg": 163.56093124056966,
      "height_km": 482.9228545676908,
      "semi_major_axis_km": 6861.191961996668,
      "eccentricity": 0.00014319,
      "inclination_deg": 42.9991,
      "raan_deg": 218.036,
      "arg_perigee_deg": 264.6689,
      "mean_anomaly_deg": 95.3999,
      "mean_motion_rev_day": 15.27578041
    },
    {
      "epoch": "2026-04-09T14:02:47.334912Z",
      "apogee_km": 483.94983297623,
      "perigee_km": 482.143969373441,
      "latitude_deg": 4.50213118145154e-05,
      "longitude_deg": 163.96916699057073,
      "height_km": 482.8986527151437,
      "semi_major_axis_km": 6861.183901174835,
      "eccentricity": 0.0001316,
      "inclination_deg": 43.0009,
      "raan_deg": 212.4977,
      "arg_perigee_deg": 265.2329,
      "mean_anomaly_deg": 94.8373,
      "mean_motion_rev_day": 15.27580733
    },
    {
      "epoch": "2026-04-10T07:18:30.890880Z",
      "apogee_km": 483.9604856078513,
      "perigee_km": 482.1624399386974,
      "latitude_deg": -1.3351438446364167e-05,
      "longitude_deg": -99.73330960185187,
      "height_km": 482.97347838062433,
      "semi_major_axis_km": 6861.1984627732745,
      "eccentricity": 0.00013103,
      "inclination_deg": 43.0008,
      "raan_deg": 208.4357,
      "arg_perigee_deg": 261.3424,
      "mean_anomaly_deg": 98.7279,
      "mean_motion_rev_day": 15.2757587
    },
    {
      "epoch": "2026-04-11T13:07:29.442720Z",
      "apogee_km": 483.861703080368,
      "perigee_km": 482.2493228398225,
      "latitude_deg": -4.370277266717005e-05,
      "longitude_deg": 164.78427905628794,
      "height_km": 483.0622980258943,
      "semi_major_axis_km": 6861.192512960095,
      "eccentricity": 0.0001175,
      "inclination_deg": 43.0028,
      "raan_deg": 201.4218,
      "arg_perigee_deg": 253.4214,
      "mean_anomaly_deg": 106.6508,
      "mean_motion_rev_day": 15.27577857
    },
    {
      "epoch": "2026-04-13T07:29:42.540288Z",
      "apogee_km": 483.7994513826943,
      "perigee_km": 482.26995898617406,
      "latitude_deg": -3.687830716837347e-05,
      "longitude_deg": -122.48497449428466,
      "height_km": 482.9341927576746,
      "semi_major_axis_km": 6861.171705184433,
      "eccentricity": 0.00011146,
      "inclination_deg": 42.9981,
      "raan_deg": 191.4472,
      "arg_perigee_deg": 260.7243,
      "mean_anomaly_deg": 99.3482,
      "mean_motion_rev_day": 15.27584806
    }
  ]
}